STARLINK-30783          
1 58130U 23162N   26068.21921962  .00009192  00000+0  34332-3 0  9993
2 58130  43.0004 131.8664 0000579  38.3391 321.7502 15.27561850132272
ION SCV-017             
1 63230U 25052W   26068.71648816  .00006457  00000+0  24539-3 0  9998
2 63230  97.4016 324.7516 0023746  44.9875 315.3282 15.26881798 54851
